[{"OBJECT_NAME":"ONEWEB-0504","OBJECT_ID":"2022-138K","EPOCH":"2026-03-02T03:37:06.756096","MEAN_MOTION":13.19725855,"ECCENTRICITY":0.000151,"INCLINATION":87.9242,"RA_OF_ASC_NODE":326.2842,"ARG_OF_PERICENTER":83.5179,"MEAN_ANOMALY":276.6126,"EPHEMERIS_TYPE":0,"CLASSIFICATION_TYPE":"U","NORAD_CAT_ID":54122,"ELEMENT_SET_NO":999,"REV_AT_EPOCH":16271,"BSTAR":0.00027349,"MEAN_MOTION_DOT":1.22e-6,"MEAN_MOTION_DDOT":0},{"OBJECT_NAME":"ONEWEB-0505","OBJECT_ID":"2022-138L","EPOCH":"2026-03-02T03:32:33.431424","MEAN_MOTION":13.19725411,"ECCENTRICITY":0.0001445,"INCLINATION":87.9251,"RA_OF_ASC_NODE":326.2806,"ARG_OF_PERICENTER":95.4578,"MEAN_ANOMALY":264.672,"EPHEMERIS_TYPE":0,"CLASSIFICATION_TYPE":"U","NORAD_CAT_ID":54123,"ELEMENT_SET_NO":999,"REV_AT_EPOCH":16269,"BSTAR":0.00034912,"MEAN_MOTION_DOT":1.53e-6,"MEAN_MOTION_DDOT":0},{"OBJECT_NAME":"ONEWEB-0506","OBJECT_ID":"2022-138M","EPOCH":"2026-03-02T02:56:10.187232","MEAN_MOTION":13.19726492,"ECCENTRICITY":0.0001528,"INCLINATION":87.9251,"RA_OF_ASC_NODE":326.2827,"ARG_OF_PERICENTER":89.1,"MEAN_ANOMALY":271.0308,"EPHEMERIS_TYPE":0,"CLASSIFICATION_TYPE":"U","NORAD_CAT_ID":54124,"ELEMENT_SET_NO":999,"REV_AT_EPOCH":16268,"BSTAR":0.00011046,"MEAN_MOTION_DOT":5.7e-7,"MEAN_MOTION_DDOT":0},{"OBJECT_NAME":"ONEWEB-0507","OBJECT_ID":"2022-138N","EPOCH":"2026-03-02T03:25:43.656096","MEAN_MOTION":13.19726584,"ECCENTRICITY":0.0001671,"INCLINATION":87.9239,"RA_OF_ASC_NODE":326.3013,"ARG_OF_PERICENTER":87.1912,"MEAN_ANOMALY":272.9412,"EPHEMERIS_TYPE":0,"CLASSIFICATION_TYPE":"U","NORAD_CAT_ID":54125,"ELEMENT_SET_NO":999,"REV_AT_EPOCH":16273,"BSTAR":0.00037892,"MEAN_MOTION_DOT":1.65e-6,"MEAN_MOTION_DDOT":0},{"OBJECT_NAME":"ONEWEB-0508","OBJECT_ID":"2022-138P","EPOCH":"2026-03-02T03:21:09.852768","MEAN_MOTION":13.19723942,"ECCENTRICITY":0.0001766,"INCLINATION":87.9241,"RA_OF_ASC_NODE":326.3007,"ARG_OF_PERICENTER":96.3478,"MEAN_ANOMALY":263.7856,"EPHEMERIS_TYPE":0,"CLASSIFICATION_TYPE":"U","NORAD_CAT_ID":54126,"ELEMENT_SET_NO":999,"REV_AT_EPOCH":16271,"BSTAR":0.0002552,"MEAN_MOTION_DOT":1.15e-6,"MEAN_MOTION_DDOT":0},{"OBJECT_NAME":"ONEWEB-0509","OBJECT_ID":"2022-138Q","EPOCH":"2026-03-02T02:44:46.649184","MEAN_MOTION":13.19723667,"ECCENTRICITY":0.0001692,"INCLINATION":87.9251,"RA_OF_ASC_NODE":326.2846,"ARG_OF_PERICENTER":83.841,"MEAN_ANOMALY":276.2915,"EPHEMERIS_TYPE":0,"CLASSIFICATION_TYPE":"U","NORAD_CAT_ID":54127,"ELEMENT_SET_NO":999,"REV_AT_EPOCH":16268,"BSTAR":-3.5623e-5,"MEAN_MOTION_DOT":-1.0e-8,"MEAN_MOTION_DDOT":0},{"OBJECT_NAME":"ONEWEB-0510","OBJECT_ID":"2022-138R","EPOCH":"2026-03-02T03:54:33.694272","MEAN_MOTION":13.20778529,"ECCENTRICITY":0.0001811,"INCLINATION":87.9179,"RA_OF_ASC_NODE":295.8033,"ARG_OF_PERICENTER":71.1945,"MEAN_ANOMALY":288.9385,"EPHEMERIS_TYPE":0,"CLASSIFICATION_TYPE":"U","NORAD_CAT_ID":54128,"ELEMENT_SET_NO":999,"REV_AT_EPOCH":16515,"BSTAR":-0.0062577,"MEAN_MOTION_DOT":-2.531e-5,"MEAN_MOTION_DDOT":0},{"OBJECT_NAME":"ONEWEB-0511","OBJECT_ID":"2022-138S","EPOCH":"2026-03-02T02:40:14.395008","MEAN_MOTION":13.19725748,"ECCENTRICITY":0.0001467,"INCLINATION":87.9253,"RA_OF_ASC_NODE":326.2896,"ARG_OF_PERICENTER":74.4415,"MEAN_ANOMALY":285.6879,"EPHEMERIS_TYPE":0,"CLASSIFICATION_TYPE":"U","NORAD_CAT_ID":54129,"ELEMENT_SET_NO":999,"REV_AT_EPOCH":16271,"BSTAR":-0.00023114,"MEAN_MOTION_DOT":-8.0e-7,"MEAN_MOTION_DDOT":0},{"OBJECT_NAME":"ONEWEB-0512","OBJECT_ID":"2022-138T","EPOCH":"2026-03-02T02:28:51.040992","MEAN_MOTION":13.19730578,"ECCENTRICITY":0.0001264,"INCLINATION":87.9237,"RA_OF_ASC_NODE":326.3056,"ARG_OF_PERICENTER":90.7122,"MEAN_ANOMALY":269.4156,"EPHEMERIS_TYPE":0,"CLASSIFICATION_TYPE":"U","NORAD_CAT_ID":54130,"ELEMENT_SET_NO":999,"REV_AT_EPOCH":16268,"BSTAR":-0.0022884,"MEAN_MOTION_DOT":-9.03e-6,"MEAN_MOTION_DDOT":0},{"OBJECT_NAME":"ONEWEB-0513","OBJECT_ID":"2022-138U","EPOCH":"2026-03-02T03:39:58.757760","MEAN_MOTION":13.20262047,"ECCENTRICITY":9.18e-5,"INCLINATION":87.9251,"RA_OF_ASC_NODE":326.2516,"ARG_OF_PERICENTER":104.4458,"MEAN_ANOMALY":255.6777,"EPHEMERIS_TYPE":0,"CLASSIFICATION_TYPE":"U","NORAD_CAT_ID":54131,"ELEMENT_SET_NO":999,"REV_AT_EPOCH":16259,"BSTAR":0.0002291,"MEAN_MOTION_DOT":1.05e-6,"MEAN_MOTION_DDOT":0},{"OBJECT_NAME":"ONEWEB-0514","OBJECT_ID":"2022-138V","EPOCH":"2026-03-02T02:51:36.554112","MEAN_MOTION":13.19727009,"ECCENTRICITY":0.0001748,"INCLINATION":87.9242,"RA_OF_ASC_NODE":326.2915,"ARG_OF_PERICENTER":75.544,"MEAN_ANOMALY":284.5887,"EPHEMERIS_TYPE":0,"CLASSIFICATION_TYPE":"U","NORAD_CAT_ID":54132,"ELEMENT_SET_NO":999,"REV_AT_EPOCH":16270,"BSTAR":0.00010843,"MEAN_MOTION_DOT":5.6e-7,"MEAN_MOTION_DDOT":0},{"OBJECT_NAME":"ONEWEB-0515","OBJECT_ID":"2022-138W","EPOCH":"2026-03-02T03:36:23.307264","MEAN_MOTION":13.20772746,"ECCENTRICITY":0.0002489,"INCLINATION":87.9184,"RA_OF_ASC_NODE":295.7952,"ARG_OF_PERICENTER":77.1861,"MEAN_ANOMALY":282.9551,"EPHEMERIS_TYPE":0,"CLASSIFICATION_TYPE":"U","NORAD_CAT_ID":54133,"ELEMENT_SET_NO":999,"REV_AT_EPOCH":16517,"BSTAR":0.00027751,"MEAN_MOTION_DOT":1.26e-6,"MEAN_MOTION_DDOT":0},{"OBJECT_NAME":"ONEWEB-0516","OBJECT_ID":"2022-138X","EPOCH":"2026-03-02T04:04:23.923776","MEAN_MOTION":13.19725857,"ECCENTRICITY":0.0001788,"INCLINATION":87.9236,"RA_OF_ASC_NODE":326.2939,"ARG_OF_PERICENTER":83.9929,"MEAN_ANOMALY":276.1407,"EPHEMERIS_TYPE":0,"CLASSIFICATION_TYPE":"U","NORAD_CAT_ID":54134,"ELEMENT_SET_NO":999,"REV_AT_EPOCH":16271,"BSTAR":9.8675e-5,"MEAN_MOTION_DOT":5.2e-7,"MEAN_MOTION_DDOT":0},{"OBJECT_NAME":"ONEWEB-0517","OBJECT_ID":"2022-138Y","EPOCH":"2026-03-02T03:34:49.696320","MEAN_MOTION":13.19726389,"ECCENTRICITY":0.0001505,"INCLINATION":87.9244,"RA_OF_ASC_NODE":326.2862,"ARG_OF_PERICENTER":71.0801,"MEAN_ANOMALY":289.0494,"EPHEMERIS_TYPE":0,"CLASSIFICATION_TYPE":"U","NORAD_CAT_ID":54135,"ELEMENT_SET_NO":999,"REV_AT_EPOCH":16271,"BSTAR":0.00026582,"MEAN_MOTION_DOT":1.19e-6,"MEAN_MOTION_DDOT":0},{"OBJECT_NAME":"ONEWEB-0518","OBJECT_ID":"2022-138Z","EPOCH":"2026-03-02T04:02:05.959392","MEAN_MOTION":13.19727012,"ECCENTRICITY":0.0001657,"INCLINATION":87.9235,"RA_OF_ASC_NODE":326.2957,"ARG_OF_PERICENTER":86.2552,"MEAN_ANOMALY":273.877,"EPHEMERIS_TYPE":0,"CLASSIFICATION_TYPE":"U","NORAD_CAT_ID":54136,"ELEMENT_SET_NO":999,"REV_AT_EPOCH":16271,"BSTAR":-3.6538e-5,"MEAN_MOTION_DOT":-2.0e-8,"MEAN_MOTION_DDOT":0},{"OBJECT_NAME":"ONEWEB-0519","OBJECT_ID":"2022-138AA","EPOCH":"2026-03-02T02:49:20.645184","MEAN_MOTION":13.19726071,"ECCENTRICITY":0.0001529,"INCLINATION":87.9248,"RA_OF_ASC_NODE":326.2847,"ARG_OF_PERICENTER":74.5605,"MEAN_ANOMALY":285.5696,"EPHEMERIS_TYPE":0,"CLASSIFICATION_TYPE":"U","NORAD_CAT_ID":54137,"ELEMENT_SET_NO":999,"REV_AT_EPOCH":16271,"BSTAR":0.00019037,"MEAN_MOTION_DOT":8.9e-7,"MEAN_MOTION_DDOT":0},{"OBJECT_NAME":"ONEWEB-0520","OBJECT_ID":"2022-138AB","EPOCH":"2026-03-02T03:39:22.872384","MEAN_MOTION":13.19725519,"ECCENTRICITY":0.0001642,"INCLINATION":87.9243,"RA_OF_ASC_NODE":326.284,"ARG_OF_PERICENTER":88.6597,"MEAN_ANOMALY":271.4724,"EPHEMERIS_TYPE":0,"CLASSIFICATION_TYPE":"U","NORAD_CAT_ID":54138,"ELEMENT_SET_NO":999,"REV_AT_EPOCH":16270,"BSTAR":0.00012065,"MEAN_MOTION_DOT":6.1e-7,"MEAN_MOTION_DDOT":0},{"OBJECT_NAME":"ONEWEB-0521","OBJECT_ID":"2022-138AC","EPOCH":"2026-03-02T02:37:57.722304","MEAN_MOTION":13.19725836,"ECCENTRICITY":0.0001604,"INCLINATION":87.9248,"RA_OF_ASC_NODE":326.2766,"ARG_OF_PERICENTER":72.0435,"MEAN_ANOMALY":288.0872,"EPHEMERIS_TYPE":0,"CLASSIFICATION_TYPE":"U","NORAD_CAT_ID":54139,"ELEMENT_SET_NO":999,"REV_AT_EPOCH":16264,"BSTAR":2.7278e-5,"MEAN_MOTION_DOT":2.4e-7,"MEAN_MOTION_DDOT":0},{"OBJECT_NAME":"ONEWEB-0522","OBJECT_ID":"2022-138AD","EPOCH":"2026-03-02T03:57:34.174368","MEAN_MOTION":13.19726273,"ECCENTRICITY":0.0001609,"INCLINATION":87.9246,"RA_OF_ASC_NODE":326.2666,"ARG_OF_PERICENTER":83.8799,"MEAN_ANOMALY":276.2517,"EPHEMERIS_TYPE":0,"CLASSIFICATION_TYPE":"U","NORAD_CAT_ID":54140,"ELEMENT_SET_NO":999,"REV_AT_EPOCH":16269,"BSTAR":4.8221e-5,"MEAN_MOTION_DOT":3.2e-7,"MEAN_MOTION_DDOT":0},{"OBJECT_NAME":"ONEWEB-0523","OBJECT_ID":"2022-138AE","EPOCH":"2026-03-02T03:18:12.544416","MEAN_MOTION":13.20772649,"ECCENTRICITY":0.0002108,"INCLINATION":87.9185,"RA_OF_ASC_NODE":295.8125,"ARG_OF_PERICENTER":64.6543,"MEAN_ANOMALY":295.4809,"EPHEMERIS_TYPE":0,"CLASSIFICATION_TYPE":"U","NORAD_CAT_ID":54141,"ELEMENT_SET_NO":999,"REV_AT_EPOCH":16517,"BSTAR":0.00035261,"MEAN_MOTION_DOT":1.56e-6,"MEAN_MOTION_DDOT":0},{"OBJECT_NAME":"ONEWEB-0524","OBJECT_ID":"2022-138AF","EPOCH":"2026-03-02T03:02:19.033152","MEAN_MOTION":13.20771159,"ECCENTRICITY":0.0002527,"INCLINATION":87.9178,"RA_OF_ASC_NODE":295.8145,"ARG_OF_PERICENTER":83.8869,"MEAN_ANOMALY":276.2552,"EPHEMERIS_TYPE":0,"CLASSIFICATION_TYPE":"U","NORAD_CAT_ID":54142,"ELEMENT_SET_NO":999,"REV_AT_EPOCH":16517,"BSTAR":0.00022127,"MEAN_MOTION_DOT":1.03e-6,"MEAN_MOTION_DDOT":0},{"OBJECT_NAME":"ONEWEB-0525","OBJECT_ID":"2022-138AG","EPOCH":"2026-03-02T02:35:41.452224","MEAN_MOTION":13.19724542,"ECCENTRICITY":0.0001629,"INCLINATION":87.9241,"RA_OF_ASC_NODE":326.2932,"ARG_OF_PERICENTER":88.398,"MEAN_ANOMALY":271.7339,"EPHEMERIS_TYPE":0,"CLASSIFICATION_TYPE":"U","NORAD_CAT_ID":54143,"ELEMENT_SET_NO":999,"REV_AT_EPOCH":16270,"BSTAR":-0.00018671,"MEAN_MOTION_DOT":-6.2e-7,"MEAN_MOTION_DDOT":0},{"OBJECT_NAME":"ONEWEB-0526","OBJECT_ID":"2022-138AH","EPOCH":"2026-03-02T03:23:26.329344","MEAN_MOTION":13.19723653,"ECCENTRICITY":0.0001766,"INCLINATION":87.925,"RA_OF_ASC_NODE":326.2806,"ARG_OF_PERICENTER":83.2976,"MEAN_ANOMALY":276.8357,"EPHEMERIS_TYPE":0,"CLASSIFICATION_TYPE":"U","NORAD_CAT_ID":54144,"ELEMENT_SET_NO":999,"REV_AT_EPOCH":16268,"BSTAR":0.00031869,"MEAN_MOTION_DOT":1.41e-6,"MEAN_MOTION_DDOT":0},{"OBJECT_NAME":"ONEWEB-0529","OBJECT_ID":"2022-138AJ","EPOCH":"2026-03-02T03:28:00.391872","MEAN_MOTION":13.19725462,"ECCENTRICITY":0.0001705,"INCLINATION":87.9238,"RA_OF_ASC_NODE":326.2991,"ARG_OF_PERICENTER":87.1914,"MEAN_ANOMALY":272.9414,"EPHEMERIS_TYPE":0,"CLASSIFICATION_TYPE":"U","NORAD_CAT_ID":54145,"ELEMENT_SET_NO":999,"REV_AT_EPOCH":16270,"BSTAR":0.00025528,"MEAN_MOTION_DOT":1.15e-6,"MEAN_MOTION_DDOT":0}]
